SAR-LUPE 2              
1 31797U 07030A   26163.24564140  .00035732  00000+0  64975-3 0  9994
2 31797  98.1036 267.0698 0006300 149.6460 210.5155 15.49435125 56170
SAPPHIRE                
1 39088U 13009C   26163.28181279  .00000109  00000+0  53119-4 0  9999
2 39088  98.4258 342.8541 0009989 262.9798  97.0252 14.35239258695873
PRAETORIAN SDA_602      
1 65565U 25203A   26163.10927187  .00000051  00000+0  35197-4 0  9996
2 65565  81.3034  15.4731 0005509 198.3868 161.7090 13.84342283 37991
PRAETORIAN SDA_603      
1 65566U 25203B   26163.06205556  .00000165  00000+0  13807-3 0  9990
2 65566  81.3037  15.4298 0009119 201.8108 158.2662 13.83904968 37990
PRAETORIAN SDA_604      
1 65567U 25203C   26163.07859674  .00000071  00000+0  53994-4 0  9996
2 65567  81.3056  15.8189 0004999 206.6212 153.4688 13.83047094 37976
PRAETORIAN SDA_605      
1 65568U 25203D   26163.11767907  .00000053  00000+0  37162-4 0  9998
2 65568  81.3021  15.4507 0007823 197.0815 163.0079 13.83433835 37995
PRAETORIAN SDA_606      
1 65569U 25203E   26163.10012829  .00000062  00000+0  46028-4 0  9995
2 65569  81.3057  15.6866 0005438 195.3968 164.7024 13.83406866 37986
PRAETORIAN SDA_607      
1 65570U 25203F   26163.11138204  .00000181  00000+0  15194-3 0  9995
2 65570  81.3040  15.3468 0008415 201.8389 158.2410 13.84284152 38007
PRAETORIAN SDA_608      
1 65571U 25203G   26163.08706774  .00000056  00000+0  40207-4 0  9990
2 65571  81.3009  15.5295 0005523 205.5901 154.4983 13.83816383 37986
PRAETORIAN SDA_609      
1 65572U 25203H   26163.09344497  .00000187  00000+0  15700-3 0  9996
2 65572  81.3053  15.5071 0006351 199.0971 160.9948 13.84251066 37998
PRAETORIAN SDA_610      
1 65573U 25203J   26163.06695198  .00000056  00000+0  39401-4 0  9991
2 65573  81.3010  15.5063 0006186 202.9851 157.1029 13.83851550 37980
PRAETORIAN SDA_611      
1 65574U 25203K   26163.06572587 -.00000263  00000+0 -25020-3 0  9991
2 65574  81.3022  15.6696 0005037 209.8240 150.2630 13.83309431 37976
PRAETORIAN SDA_612      
1 65575U 25203L   26163.06173042  .00000192  00000+0  15943-3 0  9997
2 65575  81.3030  15.2716 0008847 201.3020 158.7770 13.85038562 38009
PRAETORIAN SDA_613      
1 65576U 25203M   26163.07045822  .00000056  00000+0  40580-4 0  9998
2 65576  81.3002  15.6575 0005283 198.4840 161.6125 13.82764671 37979
PRAETORIAN SDA_614      
1 65577U 25203N   26163.12219471  .00000046  00000+0  30729-4 0  9991
2 65577  81.3017  15.2920 0006739 197.9317 162.1603 13.84777846 38019
PRAETORIAN SDA_615      
1 65578U 25203P   26163.09783137  .00000182  00000+0  15170-3 0  9996
2 65578  81.3025  15.2753 0008664 199.6517 160.4307 13.84435796 38009
PRAETORIAN SDA_616      
1 65579U 25203Q   26163.06478596  .00000194  00000+0  16586-3 0  9999
2 65579  81.3065  15.8113 0005046 207.3340 152.7551 13.83267463 37975
PRAETORIAN SDA_617      
1 65580U 25203R   26163.08595392  .00000038  00000+0  23637-4 0  9990
2 65580  81.3039  15.6236 0006986 198.5052 161.5851 13.83149903 37987
PRAETORIAN SDA_618      
1 65581U 25203S   26163.06473875  .00000131  00000+0  10600-3 0  9999
2 65581  81.3024  15.2371 0009422 202.1011 157.9741 13.84669566 38007
PRAETORIAN SDA_619      
1 65582U 25203T   26163.09749141  .00000134  00000+0  11059-3 0  9997
2 65582  81.3048  15.4966 0007843 200.1093 159.9756 13.83805019 38629
PRAETORIAN SDA_620      
1 65583U 25203U   26163.05247778  .00000169  00000+0  14224-3 0  9998
2 65583  81.3032  15.5577 0007297 195.2160 164.8778 13.83617809 37989
PRAETORIAN SDA_621      
1 65584U 25203V   26163.09924827  .00000055  00000+0  38562-4 0  9996
2 65584  81.3023  15.4345 0007078 192.8352 167.2625 13.83800803 37992
PRAETORIAN SDA_601      
1 65585U 25203W   26163.06755124  .00000197  00000+0  16917-3 0  9992
2 65585  81.3049  15.7549 0005008 210.7432 149.3432 13.83167462 37972
